CS1                     
1 49261U 21088B   26068.75173904  .00015722  00000+0  51176-3 0  9998
2 49261  97.3882 132.1684 0014129  78.0335 282.2490 15.31848439245182
STARLINK-33682          
1 63433U 25069A   26068.49082582  .00027162  00000+0  92581-3 0  9996
2 63433  53.1574 143.4505 0001227  74.1805 285.9331 15.30201384 53371
